[{"OBJECT_NAME":"PAYLOAD B","OBJECT_ID":"2021-076B","EPOCH":"2026-03-09T23:07:58.430208","MEAN_MOTION":14.09434158,"ECCENTRICITY":0.00205271,"INCLINATION":86.4029,"RA_OF_ASC_NODE":122.8006,"ARG_OF_PERICENTER":151.2326,"MEAN_ANOMALY":208.9992,"EPHEMERIS_TYPE":0,"CLASSIFICATION_TYPE":"U","NORAD_CAT_ID":49113,"ELEMENT_SET_NO":999,"REV_AT_EPOCH":23345,"BSTAR":0.00012894921,"MEAN_MOTION_DOT":2.44e-6,"MEAN_MOTION_DDOT":0},{"OBJECT_NAME":"FENGYUN 1C DEB","OBJECT_ID":"1999-025ADM","EPOCH":"2026-03-09T16:29:51.963936","MEAN_MOTION":13.78790616,"ECCENTRICITY":0.01739027,"INCLINATION":99.7101,"RA_OF_ASC_NODE":332.3365,"ARG_OF_PERICENTER":69.0959,"MEAN_ANOMALY":347.6142,"EPHEMERIS_TYPE":0,"CLASSIFICATION_TYPE":"U","NORAD_CAT_ID":30398,"ELEMENT_SET_NO":999,"REV_AT_EPOCH":95955,"BSTAR":0.00056477345,"MEAN_MOTION_DOT":5.97e-6,"MEAN_MOTION_DDOT":0}]
